IRIDIUM 116             
1 43072U 17083C   23277.82767668  .00000178  00000+0  56621-4 0  9995
2 43072  86.4026  14.2402 0002185  97.9658 262.1786 14.34218131302798
IRIDIUM 130             
1 43073U 17083D   23277.79595979  .00000448  00000+0  15291-3 0  9993
2 43073  86.4038  14.4333 0002158  91.5346 268.6097 14.34214588302733
IRIDIUM 151             
1 43074U 17083E   23277.77059219  .00000321  00000+0  10749-3 0  9997
2 43074  86.4029  14.2997 0002346  96.7038 263.4424 14.34216647302759
IRIDIUM 134             
1 43075U 17083F   23277.80864712  .00000579  00000+0  19956-3 0  9998
2 43075  86.4030  14.2783 0002002  93.0188 267.1237 14.34216562302726
IRIDIUM 137             
1 43076U 17083G   23277.82131824  .00000636  00000+0  22001-3 0  9991
2 43076  86.4030  14.3470 0002192 102.5904 257.5537 14.34212961302795
IRIDIUM 141             
1 43077U 17083H   23277.81499816  .00000640  00000+0  22136-3 0  9993
2 43077  86.4027  14.2352 0002379  91.2843 268.8626 14.34219043302795
IRIDIUM 153             
1 43078U 17083J   23277.90670422 -.00000264  00000+0 -10148-3 0  9992
2 43078  86.4007 342.6733 0002223  84.3149 275.8300 14.34215462303918
IRIDIUM 131             
1 43079U 17083K   23277.80230124  .00000522  00000+0  17943-3 0  9998
2 43079  86.4033  14.3612 0002236  91.1279 269.0173 14.34214851302723
